STARLINK-1504           
1 45746U 20038S   25213.09140098  .00018131  00000+0  60686-3 0  9995
2 45746  53.0312 108.9495 0001344 108.1665 251.9481 15.31038607283475
STARLINK-1506           
1 45747U 20038T   25213.17220785  .00033236  00000+0  16177-2 0  9995
2 45747  53.0516 136.3563 0002579 352.1767   7.9186 15.18105188283103
STARLINK-1464           
1 45751U 20038X   25213.16138851  .00001566  00000+0  12403-3 0  9991
2 45751  53.0551 126.6073 0001431 102.6864 257.4285 15.06401491283247
STARLINK-1476           
1 45753U 20038Z   25213.58335648  .00266433  00000+0  12550-2 0  9990
2 45753  53.0245  50.2918 0006061 189.8526  31.5670 15.81817103285453
STARLINK-1477           
1 45754U 20038AA  25213.17613308  .00000321  00000+0  40455-4 0  9997
2 45754  53.0564 126.5409 0001576  98.5588 261.5579 15.06396962284207
STARLINK-1478           
1 45755U 20038AB  25213.59263343  .00009890  00000+0  68191-3 0  9990
2 45755  53.0534 124.6753 0001197  95.1079 265.0046 15.06399676283294
STARLINK-1484           
1 45756U 20038AC  25213.23145981  .00072546  00000+0  14692-2 0  9993
2 45756  53.0213  62.1002 0001661 127.4582 232.6575 15.45783374284143
STARLINK-1487           
1 45758U 20038AE  25213.91668981  .00296407  45542-4  74976-3 0  9991
2 45758  53.0146 288.2333 0007941   1.2037 156.2921 15.95009572287199
STARLINK-1493           
1 45759U 20038AF  25213.78061566  .00000729  00000+0  67833-4 0  9993
2 45759  53.0539 123.8316 0001227 106.0695 254.0429 15.06404872284254
STARLINK-1494           
1 45760U 20038AG  25213.71795900 -.00001123  00000+0 -56531-4 0  9998
2 45760  53.0556 124.1118 0001326  94.1472 265.9669 15.06395228284249
STARLINK-1502           
1 45764U 20038AL  25213.15032711 -.00001815  00000+0 -10304-3 0  9999
2 45764  53.0534 126.6572 0001376  75.7337 284.3805 15.06390152283247
STARLINK-1470           
1 45772U 20038AU  25213.23528197  .00016998  00000+0  10005-2 0  9998
2 45772  53.0515 103.9734 0004344  39.6708 320.4600 15.11741102283563
STARLINK-1482           
1 45773U 20038AV  25213.11530626 -.00000225  00000+0  37587-5 0  9990
2 45773  53.0538 106.8172 0001343  88.9347 271.1796 15.06394326283518
STARLINK-1485           
1 45774U 20038AW  25213.03995933  .00131449  00000+0  17210-2 0  9998
2 45774  53.0548  81.2075 0005758 101.8870 258.2787 15.57674344283869
STARLINK-1491           
1 45778U 20038BA  25213.58335648  .00333808  57345-4  68541-3 0  9999
2 45778  53.0273   6.1517 0005322 320.2298 289.8771 15.98803595286068
STARLINK-1496           
1 45780U 20038BC  25213.08213695 -.00000349  00000+0 -45035-5 0  9993
2 45780  53.0546 106.9670 0001549  87.1140 273.0026 15.06384905283495
