[{"OBJECT_NAME":"STARLINK-1504","OBJECT_ID":"2020-038S","EPOCH":"2025-08-01T02:11:37.044672","MEAN_MOTION":15.31038607,"ECCENTRICITY":0.0001344,"INCLINATION":53.0312,"RA_OF_ASC_NODE":108.9495,"ARG_OF_PERICENTER":108.1665,"MEAN_ANOMALY":251.9481,"EPHEMERIS_TYPE":0,"CLASSIFICATION_TYPE":"U","NORAD_CAT_ID":45746,"ELEMENT_SET_NO":999,"REV_AT_EPOCH":28347,"BSTAR":0.00060686,"MEAN_MOTION_DOT":0.00018131,"MEAN_MOTION_DDOT":0},{"OBJECT_NAME":"STARLINK-1506","OBJECT_ID":"2020-038T","EPOCH":"2025-08-01T04:07:58.758240","MEAN_MOTION":15.18105188,"ECCENTRICITY":0.0002579,"INCLINATION":53.0516,"RA_OF_ASC_NODE":136.3563,"ARG_OF_PERICENTER":352.1767,"MEAN_ANOMALY":7.9186,"EPHEMERIS_TYPE":0,"CLASSIFICATION_TYPE":"U","NORAD_CAT_ID":45747,"ELEMENT_SET_NO":999,"REV_AT_EPOCH":28310,"BSTAR":0.0016177,"MEAN_MOTION_DOT":0.00033236,"MEAN_MOTION_DDOT":0},{"OBJECT_NAME":"STARLINK-1464","OBJECT_ID":"2020-038X","EPOCH":"2025-08-01T03:52:23.967264","MEAN_MOTION":15.06401491,"ECCENTRICITY":0.0001431,"INCLINATION":53.0551,"RA_OF_ASC_NODE":126.6073,"ARG_OF_PERICENTER":102.6864,"MEAN_ANOMALY":257.4285,"EPHEMERIS_TYPE":0,"CLASSIFICATION_TYPE":"U","NORAD_CAT_ID":45751,"ELEMENT_SET_NO":999,"REV_AT_EPOCH":28324,"BSTAR":0.00012403,"MEAN_MOTION_DOT":1.566e-5,"MEAN_MOTION_DDOT":0},{"OBJECT_NAME":"STARLINK-1476","OBJECT_ID":"2020-038Z","EPOCH":"2025-08-01T14:00:01.999872","MEAN_MOTION":15.81817103,"ECCENTRICITY":0.0006061,"INCLINATION":53.0245,"RA_OF_ASC_NODE":50.2918,"ARG_OF_PERICENTER":189.8526,"MEAN_ANOMALY":31.567,"EPHEMERIS_TYPE":0,"CLASSIFICATION_TYPE":"U","NORAD_CAT_ID":45753,"ELEMENT_SET_NO":999,"REV_AT_EPOCH":28545,"BSTAR":0.001255,"MEAN_MOTION_DOT":0.00266433,"MEAN_MOTION_DDOT":0},{"OBJECT_NAME":"STARLINK-1477","OBJECT_ID":"2020-038AA","EPOCH":"2025-08-01T04:13:37.898112","MEAN_MOTION":15.06396962,"ECCENTRICITY":0.0001576,"INCLINATION":53.0564,"RA_OF_ASC_NODE":126.5409,"ARG_OF_PERICENTER":98.5588,"MEAN_ANOMALY":261.5579,"EPHEMERIS_TYPE":0,"CLASSIFICATION_TYPE":"U","NORAD_CAT_ID":45754,"ELEMENT_SET_NO":999,"REV_AT_EPOCH":28420,"BSTAR":4.0455e-5,"MEAN_MOTION_DOT":3.21e-6,"MEAN_MOTION_DDOT":0},{"OBJECT_NAME":"STARLINK-1478","OBJECT_ID":"2020-038AB","EPOCH":"2025-08-01T14:13:23.528352","MEAN_MOTION":15.06399676,"ECCENTRICITY":0.0001197,"INCLINATION":53.0534,"RA_OF_ASC_NODE":124.6753,"ARG_OF_PERICENTER":95.1079,"MEAN_ANOMALY":265.0046,"EPHEMERIS_TYPE":0,"CLASSIFICATION_TYPE":"U","NORAD_CAT_ID":45755,"ELEMENT_SET_NO":999,"REV_AT_EPOCH":28329,"BSTAR":0.00068191,"MEAN_MOTION_DOT":9.89e-5,"MEAN_MOTION_DDOT":0},{"OBJECT_NAME":"STARLINK-1484","OBJECT_ID":"2020-038AC","EPOCH":"2025-08-01T05:33:18.127584","MEAN_MOTION":15.45783374,"ECCENTRICITY":0.0001661,"INCLINATION":53.0213,"RA_OF_ASC_NODE":62.1002,"ARG_OF_PERICENTER":127.4582,"MEAN_ANOMALY":232.6575,"EPHEMERIS_TYPE":0,"CLASSIFICATION_TYPE":"U","NORAD_CAT_ID":45756,"ELEMENT_SET_NO":999,"REV_AT_EPOCH":28414,"BSTAR":0.0014692,"MEAN_MOTION_DOT":0.00072546,"MEAN_MOTION_DDOT":0},{"OBJECT_NAME":"STARLINK-1487","OBJECT_ID":"2020-038AE","EPOCH":"2025-08-01T22:00:01.999584","MEAN_MOTION":15.95009572,"ECCENTRICITY":0.0007941,"INCLINATION":53.0146,"RA_OF_ASC_NODE":288.2333,"ARG_OF_PERICENTER":1.2037,"MEAN_ANOMALY":156.2921,"EPHEMERIS_TYPE":0,"CLASSIFICATION_TYPE":"U","NORAD_CAT_ID":45758,"ELEMENT_SET_NO":999,"REV_AT_EPOCH":28719,"BSTAR":0.00074976,"MEAN_MOTION_DOT":0.00296407,"MEAN_MOTION_DDOT":4.5542e-5},{"OBJECT_NAME":"STARLINK-1493","OBJECT_ID":"2020-038AF","EPOCH":"2025-08-01T18:44:05.193024","MEAN_MOTION":15.06404872,"ECCENTRICITY":0.0001227,"INCLINATION":53.0539,"RA_OF_ASC_NODE":123.8316,"ARG_OF_PERICENTER":106.0695,"MEAN_ANOMALY":254.0429,"EPHEMERIS_TYPE":0,"CLASSIFICATION_TYPE":"U","NORAD_CAT_ID":45759,"ELEMENT_SET_NO":999,"REV_AT_EPOCH":28425,"BSTAR":6.7833e-5,"MEAN_MOTION_DOT":7.29e-6,"MEAN_MOTION_DDOT":0},{"OBJECT_NAME":"STARLINK-1494","OBJECT_ID":"2020-038AG","EPOCH":"2025-08-01T17:13:51.657600","MEAN_MOTION":15.06395228,"ECCENTRICITY":0.0001326,"INCLINATION":53.0556,"RA_OF_ASC_NODE":124.1118,"ARG_OF_PERICENTER":94.1472,"MEAN_ANOMALY":265.9669,"EPHEMERIS_TYPE":0,"CLASSIFICATION_TYPE":"U","NORAD_CAT_ID":45760,"ELEMENT_SET_NO":999,"REV_AT_EPOCH":28424,"BSTAR":-5.6531e-5,"MEAN_MOTION_DOT":-1.123e-5,"MEAN_MOTION_DDOT":0},{"OBJECT_NAME":"STARLINK-1502","OBJECT_ID":"2020-038AL","EPOCH":"2025-08-01T03:36:28.262304","MEAN_MOTION":15.06390152,"ECCENTRICITY":0.0001376,"INCLINATION":53.0534,"RA_OF_ASC_NODE":126.6572,"ARG_OF_PERICENTER":75.7337,"MEAN_ANOMALY":284.3805,"EPHEMERIS_TYPE":0,"CLASSIFICATION_TYPE":"U","NORAD_CAT_ID":45764,"ELEMENT_SET_NO":999,"REV_AT_EPOCH":28324,"BSTAR":-0.00010304,"MEAN_MOTION_DOT":-1.815e-5,"MEAN_MOTION_DDOT":0},{"OBJECT_NAME":"STARLINK-1470","OBJECT_ID":"2020-038AU","EPOCH":"2025-08-01T05:38:48.362208","MEAN_MOTION":15.11741102,"ECCENTRICITY":0.0004344,"INCLINATION":53.0515,"RA_OF_ASC_NODE":103.9734,"ARG_OF_PERICENTER":39.6708,"MEAN_ANOMALY":320.46,"EPHEMERIS_TYPE":0,"CLASSIFICATION_TYPE":"U","NORAD_CAT_ID":45772,"ELEMENT_SET_NO":999,"REV_AT_EPOCH":28356,"BSTAR":0.0010005,"MEAN_MOTION_DOT":0.00016998,"MEAN_MOTION_DDOT":0},{"OBJECT_NAME":"STARLINK-1482","OBJECT_ID":"2020-038AV","EPOCH":"2025-08-01T02:46:02.460864","MEAN_MOTION":15.06394326,"ECCENTRICITY":0.0001343,"INCLINATION":53.0538,"RA_OF_ASC_NODE":106.8172,"ARG_OF_PERICENTER":88.9347,"MEAN_ANOMALY":271.1796,"EPHEMERIS_TYPE":0,"CLASSIFICATION_TYPE":"U","NORAD_CAT_ID":45773,"ELEMENT_SET_NO":999,"REV_AT_EPOCH":28351,"BSTAR":3.7587e-6,"MEAN_MOTION_DOT":-2.25e-6,"MEAN_MOTION_DDOT":0},{"OBJECT_NAME":"STARLINK-1485","OBJECT_ID":"2020-038AW","EPOCH":"2025-08-01T00:57:32.486112","MEAN_MOTION":15.57674344,"ECCENTRICITY":0.0005758,"INCLINATION":53.0548,"RA_OF_ASC_NODE":81.2075,"ARG_OF_PERICENTER":101.887,"MEAN_ANOMALY":258.2787,"EPHEMERIS_TYPE":0,"CLASSIFICATION_TYPE":"U","NORAD_CAT_ID":45774,"ELEMENT_SET_NO":999,"REV_AT_EPOCH":28386,"BSTAR":0.001721,"MEAN_MOTION_DOT":0.00131449,"MEAN_MOTION_DDOT":0},{"OBJECT_NAME":"STARLINK-1491","OBJECT_ID":"2020-038BA","EPOCH":"2025-08-01T14:00:01.999872","MEAN_MOTION":15.98803595,"ECCENTRICITY":0.0005322,"INCLINATION":53.0273,"RA_OF_ASC_NODE":6.1517,"ARG_OF_PERICENTER":320.2298,"MEAN_ANOMALY":289.8771,"EPHEMERIS_TYPE":0,"CLASSIFICATION_TYPE":"U","NORAD_CAT_ID":45778,"ELEMENT_SET_NO":999,"REV_AT_EPOCH":28606,"BSTAR":0.00068541,"MEAN_MOTION_DOT":0.00333808,"MEAN_MOTION_DDOT":5.7345e-5},{"OBJECT_NAME":"STARLINK-1496","OBJECT_ID":"2020-038BC","EPOCH":"2025-08-01T01:58:16.632480","MEAN_MOTION":15.06384905,"ECCENTRICITY":0.0001549,"INCLINATION":53.0546,"RA_OF_ASC_NODE":106.967,"ARG_OF_PERICENTER":87.114,"MEAN_ANOMALY":273.0026,"EPHEMERIS_TYPE":0,"CLASSIFICATION_TYPE":"U","NORAD_CAT_ID":45780,"ELEMENT_SET_NO":999,"REV_AT_EPOCH":28349,"BSTAR":-4.5035e-6,"MEAN_MOTION_DOT":-3.49e-6,"MEAN_MOTION_DDOT":0}]
